[{"OBJECT_NAME":"CSTP 1.2 (STC 1.2)","OBJECT_ID":"2023-091W","EPOCH":"2026-03-09T23:12:27.821952","MEAN_MOTION":15.2718076,"ECCENTRICITY":0.00204388,"INCLINATION":97.5258,"RA_OF_ASC_NODE":134.3262,"ARG_OF_PERICENTER":84.9592,"MEAN_ANOMALY":275.3979,"EPHEMERIS_TYPE":0,"CLASSIFICATION_TYPE":"U","NORAD_CAT_ID":57186,"ELEMENT_SET_NO":999,"REV_AT_EPOCH":14930,"BSTAR":0.00043035718,"MEAN_MOTION_DOT":0.00011466,"MEAN_MOTION_DDOT":0},{"OBJECT_NAME":"STARLINK-32714","OBJECT_ID":"2025-003N","EPOCH":"2026-03-09T00:15:34.588800","MEAN_MOTION":15.27599264,"ECCENTRICITY":0.00019152,"INCLINATION":43.0027,"RA_OF_ASC_NODE":293.1613,"ARG_OF_PERICENTER":264.392,"MEAN_ANOMALY":95.6713,"EPHEMERIS_TYPE":0,"CLASSIFICATION_TYPE":"U","NORAD_CAT_ID":62499,"ELEMENT_SET_NO":999,"REV_AT_EPOCH":6656,"BSTAR":0.0014163541,"MEAN_MOTION_DOT":0.00038942,"MEAN_MOTION_DDOT":0}]
